{"spkid": "50082953", "covariance": {"data": [["3.824520376009989E-14", "-5.611101179792384E-14", "-1.310493178487167E-12", "-6.241176781644263E-11", "6.645713834920854E-11", "1.303183831033568E-12"], ["-5.611101179792384E-14", "8.235146680586079E-14", "1.955182104714974E-12", "9.269734607467511E-11", "-9.858477162141843E-11", "-1.940945023222612E-12"], ["-1.310493178487167E-12", "1.955182104714974E-12", "1.439709340619969E-10", "3.876985500518067E-9", "-3.889858091542526E-9", "-8.080962704814786E-11"], ["-6.241176781644263E-11", "9.269734607467511E-11", "3.876985500518067E-9", "2.214914047851133E-6", "-2.217378163787416E-6", "-7.237749659110807E-8"], ["6.645713834920854E-11", "-9.858477162141843E-11", "-3.889858091542526E-9", "-2.217378163787416E-6", "2.220442451346752E-6", "7.240840684277568E-8"], ["1.303183831033568E-12", "-1.940945023222612E-12", "-8.080962704814786E-11", "-7.237749659110807E-8", "7.240840684277568E-8", "2.398937210633152E-9"]], "elements": [{"name": "e", "sigma": 1.95563809944734e-07, "units": null, "title": "eccentricity", "value": ".5975690677145519", "label": "e"}, {"label": "q", "units": "au", "value": ".6763493072548935", "title": "perihelion distance", "name": "q", "sigma": 2.8696945273994e-07}, {"label": "tp", "sigma": 1.19987888581305e-05, "name": "tp", "title": "time of perihelion passage", "value": "2452236.183901921852", "units": "TDB"}, {"label": "node", "title": "longitude of the ascending node", "value": "232.8798701008966", "units": "deg", "sigma": 0.00148825873014444, "name": "om"}, {"sigma": 0.00149011491212817, "name": "w", "value": "223.09322093759", "title": "argument of perihelion", "units": "deg", "label": "peri"}, {"name": "i", "sigma": 4.89789466059975e-05, "units": "deg", "title": "inclination", "value": "1.863199849141068", "label": "i"}], "labels": ["e", "q", "tp", "node", "peri", "i"], "epoch": "2452526.5"}, "elements": [{"label": "e", "value": ".5973427020938609", "title": "eccentricity", "units": null, "sigma": "1.8649E-7", "name": "e"}, {"sigma": "5.3071E-8", "name": "a", "units": "au", "value": "1.679758068422555", "title": "semi-major axis", "label": "a"}, {"title": "perihelion distance", "value": ".6763668449670616", "units": "au", "sigma": "2.9225E-7", "name": "q", "label": "q"}, {"label": "i", "name": "i", "sigma": "4.9223E-5", "value": "1.863501021238847", "title": "inclination; angle with respect to x-y ecliptic plane", "units": "deg"}, {"label": "node", "sigma": ".001483", "name": "om", "units": "deg", "title": "longitude of the ascending node", "value": "232.105467069526"}, {"units": "deg", "title": "argument of perihelion", "value": "223.89603423", "sigma": ".0014859", "name": "w", "label": "peri"}, {"name": "ma", "sigma": ".00028682", "units": "deg", "title": "mean anomaly", "value": "98.39728016969836", "label": "M"}, {"label": "tp", "title": "time of perihelion passage", "value": "2460983.155265128417", "units": "TDB", "name": "tp", "sigma": ".00062325"}, {"label": "period", "units": "d", "value": "795.1856435343368", "title": "sidereal orbital period", "name": "per", "sigma": "3.7685E-5"}, {"sigma": "2.1455E-8", "name": "n", "value": ".452724471231547", "title": "mean motion", "units": "deg/d", "label": "n"}, {"sigma": "8.4773E-8", "name": "ad", "units": "au", "title": "aphelion distance", "value": "2.683149291878049", "label": "Q"}], "epoch": "2461200.5"}